*******************************************************************************
Ephemeris / WWW_USER Mon Mar 24 08:17:05 2025 Pasadena, USA      / Horizons    
*******************************************************************************
Target body name: (2018 UG3)                      {source: JPL#15}
Center body name: Earth (399)                     {source: DE441}
Center-site name: Mauna Kea
*******************************************************************************
Start time      : A.D. 2018-Dec-22 03:58:00.0000 UT      
Stop  time      : A.D. 2018-Dec-22 16:42:00.0000 UT      
Step-size       : 1 minutes
*******************************************************************************
Target pole/equ : undefined
Target radii    : undefined                                                    
Center geodetic : 204.5278, 19.8260847, 4.21024   {E-lon(deg),Lat(deg),Alt(km)}
Center cylindric: 204.5278, 6006.35451, 2151.0229 {E-lon(deg),Dxy(km),Dz(km)}
Center pole/equ : ITRF93                          {East-longitude positive}
Center radii    : 6378.137, 6378.137, 6356.752 km {Equator_a, b, pole_c}       
Target primary  : Sun
Vis. interferer : MOON (R_eq= 1737.400) km        {source: DE441}
Rel. light bend : Sun                             {source: DE441}
Rel. lght bnd GM: 1.3271E+11 km^3/s^2                                          
Small-body perts: Yes                             {source: SB441-N16}
Atmos refraction: NO (AIRLESS)
RA format       : HMS
Time format     : CAL 
Calendar mode   : Mixed Julian/Gregorian
RTS-only print  : NO       
EOP file        : eop.250321.p250617                                           
EOP coverage    : DATA-BASED 1962-JAN-20 TO 2025-MAR-21. PREDICTS-> 2025-JUN-16
Units conversion: 1 au= 149597870.700 km, c= 299792.458 km/s, 1 day= 86400.0 s 
Table cut-offs 1: Elevation (-90.0deg=NO ),Airmass (>38.000=NO), Daylight (YES)
Table cut-offs 2: Solar elongation (  0.0,180.0=NO ),Local Hour Angle( 0.0=NO )
Table cut-offs 3: RA/DEC angular rate (     0.0=NO )                           
*******************************************************************************
Initial IAU76/J2000 heliocentric ecliptic osculating elements (au, days, deg.):
  EPOCH=  2458429.5 ! 2018-Nov-07.00 (TDB)         Residual RMS= .46194        
   EC= .4227384440318329   QR= .9585039390071354   TP= 2458393.2526467689      
   OM= 47.27406359171053   W=  314.2704472892426   IN= 6.159551265235018       
  Equivalent ICRF heliocentric cartesian coordinates (au, au/d):
   X= 7.430529944075828E-01  Y= 6.714692173902916E-01  Z= 2.851295671149762E-01
  VX=-1.040372162305418E-02 VY= 1.447630012002514E-02 VZ= 8.505235531163944E-03
Asteroid physical parameters (km, seconds, rotational period in hours):        
   GM= n.a.                RAD= n.a.               ROTPER= n.a.                
   H= 24.5                 G= .150                 B-V= n.a.                   
                           ALBEDO= n.a.            STYP= n.a.                  
*******************************************************************************
 Date__(UT)__HR:MN     R.A._________(ICRF)_________DEC
******************************************************
$$SOE
 2018-Dec-22 08:04  m  03 54 31.398113 +34 40 07.81793
 2018-Dec-22 08:05  m  03 54 31.425794 +34 40 07.78042
 2018-Dec-22 08:06  m  03 54 31.453475 +34 40 07.74264
 2018-Dec-22 08:07  m  03 54 31.481155 +34 40 07.70458
 2018-Dec-22 08:08  m  03 54 31.508834 +34 40 07.66626
 2018-Dec-22 08:09  m  03 54 31.536514 +34 40 07.62767
 2018-Dec-22 08:10  m  03 54 31.564194 +34 40 07.58880
 2018-Dec-22 08:11  m  03 54 31.591874 +34 40 07.54967
 2018-Dec-22 08:12  m  03 54 31.619555 +34 40 07.51026
 2018-Dec-22 08:13  m  03 54 31.647236 +34 40 07.47058
 2018-Dec-22 08:14  m  03 54 31.674918 +34 40 07.43064
 2018-Dec-22 08:15  t  03 54 31.702601 +34 40 07.39042
 2018-Dec-22 08:16  m  03 54 31.730285 +34 40 07.34993
 2018-Dec-22 08:17  m  03 54 31.757971 +34 40 07.30917
 2018-Dec-22 08:18  m  03 54 31.785658 +34 40 07.26814
 2018-Dec-22 08:19  m  03 54 31.813346 +34 40 07.22684
 2018-Dec-22 08:20  m  03 54 31.841036 +34 40 07.18527
 2018-Dec-22 08:21  m  03 54 31.868728 +34 40 07.14343
 2018-Dec-22 08:22  m  03 54 31.896423 +34 40 07.10132
 2018-Dec-22 08:23  m  03 54 31.924119 +34 40 07.05894
 2018-Dec-22 08:24  m  03 54 31.951818 +34 40 07.01629
 2018-Dec-22 08:25  m  03 54 31.979520 +34 40 06.97337
 2018-Dec-22 08:26  m  03 54 32.007224 +34 40 06.93018
 2018-Dec-22 08:27  m  03 54 32.034932 +34 40 06.88672
 2018-Dec-22 08:28  m  03 54 32.062642 +34 40 06.84299
 2018-Dec-22 08:29  m  03 54 32.090356 +34 40 06.79899
 2018-Dec-22 08:30  m  03 54 32.118073 +34 40 06.75472
 2018-Dec-22 08:31  m  03 54 32.145794 +34 40 06.71018
 2018-Dec-22 08:32  m  03 54 32.173518 +34 40 06.66537
 2018-Dec-22 08:33  m  03 54 32.201246 +34 40 06.62029
 2018-Dec-22 08:34  m  03 54 32.228979 +34 40 06.57494
 2018-Dec-22 08:35  m  03 54 32.256716 +34 40 06.52932
 2018-Dec-22 08:36  m  03 54 32.284457 +34 40 06.48344
 2018-Dec-22 08:37  m  03 54 32.312202 +34 40 06.43728
 2018-Dec-22 08:38  m  03 54 32.339953 +34 40 06.39086
 2018-Dec-22 08:39  m  03 54 32.367708 +34 40 06.34416
 2018-Dec-22 08:40  m  03 54 32.395469 +34 40 06.29720
 2018-Dec-22 08:41  m  03 54 32.423234 +34 40 06.24997
 2018-Dec-22 08:42  m  03 54 32.451005 +34 40 06.20247
 2018-Dec-22 08:43  m  03 54 32.478782 +34 40 06.15471
 2018-Dec-22 08:44  m  03 54 32.506564 +34 40 06.10667
 2018-Dec-22 08:45  m  03 54 32.534353 +34 40 06.05837
 2018-Dec-22 08:46  m  03 54 32.562147 +34 40 06.00980
 2018-Dec-22 08:47  m  03 54 32.589948 +34 40 05.96097
 2018-Dec-22 08:48  m  03 54 32.617754 +34 40 05.91186
 2018-Dec-22 08:49  m  03 54 32.645568 +34 40 05.86249
 2018-Dec-22 08:50  m  03 54 32.673388 +34 40 05.81285
 2018-Dec-22 08:51  m  03 54 32.701215 +34 40 05.76295
 2018-Dec-22 08:52  m  03 54 32.729049 +34 40 05.71278
 2018-Dec-22 08:53  m  03 54 32.756890 +34 40 05.66234
 2018-Dec-22 08:54  m  03 54 32.784739 +34 40 05.61164
 2018-Dec-22 08:55  m  03 54 32.812595 +34 40 05.56067
 2018-Dec-22 08:56  m  03 54 32.840459 +34 40 05.50943
 2018-Dec-22 08:57  m  03 54 32.868331 +34 40 05.45793
 2018-Dec-22 08:58  m  03 54 32.896210 +34 40 05.40617
 2018-Dec-22 08:59  m  03 54 32.924098 +34 40 05.35414
 2018-Dec-22 09:00  m  03 54 32.951994 +34 40 05.30184
 2018-Dec-22 09:01  m  03 54 32.979899 +34 40 05.24928
 2018-Dec-22 09:02  m  03 54 33.007812 +34 40 05.19646
 2018-Dec-22 09:03  m  03 54 33.035734 +34 40 05.14337
 2018-Dec-22 09:04  m  03 54 33.063665 +34 40 05.09002
 2018-Dec-22 09:05  m  03 54 33.091606 +34 40 05.03640
 2018-Dec-22 09:06  m  03 54 33.119555 +34 40 04.98253
 2018-Dec-22 09:07  m  03 54 33.147514 +34 40 04.92839
 2018-Dec-22 09:08  m  03 54 33.175483 +34 40 04.87398
 2018-Dec-22 09:09  m  03 54 33.203461 +34 40 04.81932
 2018-Dec-22 09:10  m  03 54 33.231449 +34 40 04.76439
 2018-Dec-22 09:11  m  03 54 33.259448 +34 40 04.70920
 2018-Dec-22 09:12  m  03 54 33.287456 +34 40 04.65375
 2018-Dec-22 09:13  m  03 54 33.315475 +34 40 04.59804
 2018-Dec-22 09:14  m  03 54 33.343505 +34 40 04.54207
 2018-Dec-22 09:15  m  03 54 33.371545 +34 40 04.48583
 2018-Dec-22 09:16  m  03 54 33.399597 +34 40 04.42934
 2018-Dec-22 09:17  m  03 54 33.427659 +34 40 04.37259
 2018-Dec-22 09:18  m  03 54 33.455733 +34 40 04.31558
 2018-Dec-22 09:19  m  03 54 33.483817 +34 40 04.25831
 2018-Dec-22 09:20  m  03 54 33.511914 +34 40 04.20078
 2018-Dec-22 09:21  m  03 54 33.540022 +34 40 04.14299
 2018-Dec-22 09:22  m  03 54 33.568142 +34 40 04.08494
 2018-Dec-22 09:23  m  03 54 33.596274 +34 40 04.02664
 2018-Dec-22 09:24  m  03 54 33.624418 +34 40 03.96807
 2018-Dec-22 09:25  m  03 54 33.652574 +34 40 03.90926
 2018-Dec-22 09:26  m  03 54 33.680743 +34 40 03.85018
 2018-Dec-22 09:27  m  03 54 33.708925 +34 40 03.79085
 2018-Dec-22 09:28  m  03 54 33.737119 +34 40 03.73126
 2018-Dec-22 09:29  m  03 54 33.765326 +34 40 03.67142
 2018-Dec-22 09:30  m  03 54 33.793546 +34 40 03.61132
 2018-Dec-22 09:31  m  03 54 33.821780 +34 40 03.55097
 2018-Dec-22 09:32  m  03 54 33.850027 +34 40 03.49036
 2018-Dec-22 09:33  m  03 54 33.878288 +34 40 03.42950
 2018-Dec-22 09:34  m  03 54 33.906562 +34 40 03.36838
 2018-Dec-22 09:35  m  03 54 33.934850 +34 40 03.30701
 2018-Dec-22 09:36  m  03 54 33.963152 +34 40 03.24539
 2018-Dec-22 09:37  m  03 54 33.991468 +34 40 03.18352
 2018-Dec-22 09:38  m  03 54 34.019799 +34 40 03.12139
 2018-Dec-22 09:39  m  03 54 34.048144 +34 40 03.05902
 2018-Dec-22 09:40  m  03 54 34.076504 +34 40 02.99639
 2018-Dec-22 09:41  m  03 54 34.104878 +34 40 02.93351
 2018-Dec-22 09:42  m  03 54 34.133268 +34 40 02.87038
 2018-Dec-22 09:43  m  03 54 34.161672 +34 40 02.80700
 2018-Dec-22 09:44  m  03 54 34.190092 +34 40 02.74338
 2018-Dec-22 09:45  m  03 54 34.218527 +34 40 02.67950
 2018-Dec-22 09:46  m  03 54 34.246978 +34 40 02.61538
 2018-Dec-22 09:47  m  03 54 34.275444 +34 40 02.55100
 2018-Dec-22 09:48  m  03 54 34.303927 +34 40 02.48638
 2018-Dec-22 09:49  m  03 54 34.332425 +34 40 02.42152
 2018-Dec-22 09:50  m  03 54 34.360940 +34 40 02.35640
 2018-Dec-22 09:51  m  03 54 34.389470 +34 40 02.29105
 2018-Dec-22 09:52  m  03 54 34.418017 +34 40 02.22544
 2018-Dec-22 09:53  m  03 54 34.446581 +34 40 02.15959
 2018-Dec-22 09:54  m  03 54 34.475162 +34 40 02.09350
 2018-Dec-22 09:55  m  03 54 34.503759 +34 40 02.02716
 2018-Dec-22 09:56  m  03 54 34.532374 +34 40 01.96058
 2018-Dec-22 09:57  m  03 54 34.561005 +34 40 01.89376
 2018-Dec-22 09:58  m  03 54 34.589655 +34 40 01.82669
 2018-Dec-22 09:59  m  03 54 34.618321 +34 40 01.75938
 2018-Dec-22 10:00  m  03 54 34.647005 +34 40 01.69183
 2018-Dec-22 10:01  m  03 54 34.675707 +34 40 01.62404
 2018-Dec-22 10:02  m  03 54 34.704427 +34 40 01.55601
 2018-Dec-22 10:03  m  03 54 34.733165 +34 40 01.48774
 2018-Dec-22 10:04  m  03 54 34.761921 +34 40 01.41923
 2018-Dec-22 10:05  m  03 54 34.790696 +34 40 01.35048
 2018-Dec-22 10:06  m  03 54 34.819489 +34 40 01.28149
